NORAD_CAT_ID,OBJECT_NAME,OBJECT_TYPE,EPOCH,MEAN_MOTION,ECCENTRICITY,INCLINATION,RA_OF_ASC_NODE,ARG_OF_PERICENTER,MEAN_ANOMALY,BSTAR,MEAN_MOTION_DOT,MEAN_MOTION_DDOT,TLE_LINE0,TLE_LINE1,TLE_LINE2,SEMIMAJOR_AXIS,PERIOD,APOGEE,PERIGEE,DECAYED
52988.0,STARLINK-4291,PAYLOAD,2022-12-24 13:59:57,15.08842283,0.0002836,53.2167,311.4349,30.6101,329.5056,7.6981e-06,-1.66e-06,0.0,0 STARLINK-4291,1 52988U 22076C   22358.58330467 -.00000166  00000-0  76981-5 0  9995,2 52988  53.2167 311.4349 0002836  30.6101 329.5056 15.08842283 26046,6917.873000000001,95.437,541.7,537.7769999999998,0.0
52988.0,STARLINK-4291,PAYLOAD,2022-12-25 01:07:39,15.08840604,0.000284,53.2166,309.3533,30.7968,329.319,6.807800000000001e-05,7.95e-06,0.0,0 STARLINK-4291,1 52988U 22076C   22359.04698570  .00000795  00000-0  68078-4 0  9993,2 52988  53.2166 309.3533 0002840  30.7968 329.3190 15.08840604 26584,6917.879,95.438,541.7080000000002,537.779,0.0
52988.0,STARLINK-4291,PAYLOAD,2022-12-25 05:53:49,15.088374900000002,0.0002825,53.2166,308.4613,31.7072,328.409,-3.3537e-05,-8.22e-06,0.0,0 STARLINK-4291,1 52988U 22076C   22359.24570749 -.00000822  00000-0 -33537-4 0  9997,2 52988  53.2166 308.4613 0002825  31.7072 328.4090 15.08837490 26143,6917.888000000001,95.438,541.707,537.799,0.0
52988.0,STARLINK-4291,PAYLOAD,2022-12-25 13:50:44,15.08835099,0.0002669,53.2164,306.9753,27.8572,332.2563,2.7514e-05,1.49e-06,0.0,0 STARLINK-4291,1 52988U 22076C   22359.57690932  .00000149  00000-0  27514-4 0  9998,2 52988  53.2164 306.9753 0002669  27.8572 332.2563 15.08835099 26664,6917.895,95.438,541.607,537.914,0.0
52988.0,STARLINK-4291,PAYLOAD,2022-12-26 05:44:36,15.08834973,0.0002776,53.2168,304.0003,29.5616,330.5533,1.0158e-05,-1.27e-06,0.0,0 STARLINK-4291,1 52988U 22076C   22360.23931683 -.00000127  00000-0  10158-4 0  9997,2 52988  53.2168 304.0003 0002776  29.5616 330.5533 15.08834973 26299,6917.896,95.438,541.681,537.84,0.0
52988.0,STARLINK-4291,PAYLOAD,2022-12-26 20:03:04,15.08841699,0.0002772,53.2167,301.3244,30.4273,329.6879,9.3449e-05,1.199e-05,0.0,0 STARLINK-4291,1 52988U 22076C   22360.83547229  .00001199  00000-0  93449-4 0  9995,2 52988  53.2167 301.3244 0002772  30.4273 329.6879 15.08841699 26386,6917.875,95.437,541.658,537.823,0.0
52988.0,STARLINK-4291,PAYLOAD,2022-12-27 02:24:37,15.08851465,0.0003295,53.2169,300.1345,39.3728,320.7503,-5.1534e-05,-1.109e-05,0.0,0 STARLINK-4291,1 52988U 22076C   22361.10042998 -.00001109  00000-0 -51534-4 0  9991,2 52988  53.2169 300.1345 0003295  39.3728 320.7503 15.08851465 26895,6917.845,95.437,541.99,537.431,0.0
52988.0,STARLINK-4291,PAYLOAD,2022-12-27 05:35:26,15.08747714,0.0003249,53.2169,299.5399,36.1651,323.956,0.0015954,0.00025131,0.0,0 STARLINK-4291,1 52988U 22076C   22361.23294612  .00025131  00000-0  15954-2 0  9990,2 52988  53.2169 299.5399 0003249  36.1651 323.9560 15.08747714 26916,6918.1619999999975,95.443,542.275,537.78,0.0
52988.0,STARLINK-4291,PAYLOAD,2022-12-27 19:53:51,15.08853061,0.0002717,53.2164,296.8635,30.8816,329.2335,0.00037508,5.688e-05,0.0,0 STARLINK-4291,1 52988U 22076C   22361.82906718  .00005688  00000-0  37508-3 0  9997,2 52988  53.2164 296.8635 0002717  30.8816 329.2335 15.08853061 27000,6917.84,95.437,541.585,537.826,0.0
52988.0,STARLINK-4291,PAYLOAD,2022-12-28 05:26:09,15.08856176,0.0002751999999999,53.2164,295.0794,31.5471,328.5686,0.00034973,5.285e-05,0.0,0 STARLINK-4291,1 52988U 22076C   22362.22650340  .00005285  00000-0  34973-3 0  9995,2 52988  53.2164 295.0794 0002752  31.5471 328.5686 15.08856176 26595,6917.831,95.437,541.6,537.7919999999998,0.0
52988.0,STARLINK-4291,PAYLOAD,2022-12-29 05:16:57,15.08836383,0.0003128,53.2161,290.619,29.8574,330.2596,-5.7567e-05,-1.205e-05,0.0,0 STARLINK-4291,1 52988U 22076C   22363.22011342 -.00001205  00000-0 -57567-4 0  9994,2 52988  53.2161 290.6190 0003128  29.8574 330.2596 15.08836383 27213,6917.891,95.438,541.92,537.5930000000002,0.0
52988.0,STARLINK-4291,PAYLOAD,2022-12-30 01:56:59,15.088281699999998,0.0002676,53.216,286.7534,28.0649,332.0487,-0.00012943,-2.347e-05,0.0,0 STARLINK-4291,1 52988U 22076C   22364.08124241 -.00002347  00000-0 -12943-3 0  9998,2 52988  53.2160 286.7534 0002676  28.0649 332.0487 15.08828170 27349,6917.917,95.438,541.633,537.93,0.0
52988.0,STARLINK-4291,PAYLOAD,2022-12-30 11:29:17,15.08840528,0.0002492,53.2157,284.97,24.1063,336.0045,0.00011447,1.534e-05,0.0,0 STARLINK-4291,1 52988U 22076C   22364.47867866  .00001534  00000-0  11447-3 0  9991,2 52988  53.2157 284.9700 0002492  24.1063 336.0045 15.08840528 26932,6917.879,95.438,541.4680000000002,538.02,0.0
52988.0,STARLINK-4291,PAYLOAD,2022-12-31 01:47:45,15.08860738,0.0002798,53.2155,282.2944,23.6049,336.5071,0.0008141,0.000127,0.0,0 STARLINK-4291,1 52988U 22076C   22365.07483462  .00012700  00000-0  81410-3 0  9998,2 52988  53.2155 282.2944 0002798  23.6049 336.5071 15.08860738 27499,6917.816999999999,95.436,541.618,537.746,0.0
52988.0,STARLINK-4291,PAYLOAD,2022-12-31 11:20:03,15.08870278,0.000286,53.2152,280.5096,25.1534,334.9597,0.00075223,0.00011714,0.0,0 STARLINK-4291,1 52988U 22076C   22365.47226645  .00011714  00000-0  75223-3 0  9999,2 52988  53.2152 280.5096 0002860  25.1534 334.9597 15.08870278 27081,6917.788000000001,95.436,541.631,537.674,0.0
52988.0,STARLINK-4291,PAYLOAD,2022-12-31 17:41:35,15.08875327,0.0002759,53.216,279.3222,29.0859,331.0287,0.00057721,8.919e-05,0.0,0 STARLINK-4291,1 52988U 22076C   22365.73722038  .00008919  00000-0  57721-3 0  9991,2 52988  53.2160 279.3222 0002759  29.0859 331.0287 15.08875327 27126,6917.772,95.435,541.5459999999998,537.729,0.0
52988.0,STARLINK-4291,PAYLOAD,2023-01-01 01:38:32,15.08845347,0.0002782,53.2157,277.8324,29.4002,330.7146,-0.00023928,-4.096e-05,0.0,0 STARLINK-4291,1 52988U 22076C   23001.06842722 -.00004096  00000-0 -23928-3 0  9994,2 52988  53.2157 277.8324 0002782  29.4002 330.7146 15.08845347 27644,6917.864000000001,95.437,541.654,537.804,0.0
52988.0,STARLINK-4291,PAYLOAD,2023-01-01 11:10:51,15.08828979,0.0002862,53.2146,276.0487,25.87,334.2434,-0.00064838,-0.0001059,0.0,0 STARLINK-4291,1 52988U 22076C   23001.46586963 -.00010590  00000-0 -64838-3 0  9991,2 52988  53.2146 276.0487 0002862  25.8700 334.2434 15.08828979 27705,6917.9140000000025,95.438,541.759,537.799,0.0
52988.0,STARLINK-4291,PAYLOAD,2023-01-01 20:43:11,15.08812673,0.0002943,53.2149,274.2653,29.3678,330.7479,-0.00064722,-0.00010567,0.0,0 STARLINK-4291,1 52988U 22076C   23001.86332263 -.00010567  00000-0 -64722-3 0  9993,2 52988  53.2149 274.2653 0002943  29.3678 330.7479 15.08812673 27294,6917.964,95.439,541.865,537.793,0.0
52988.0,STARLINK-4291,PAYLOAD,2023-01-02 11:01:39,15.08828295,0.00029,53.2152,271.5887,29.8865,330.2292,-2.7916e-05,-7.33e-06,0.0,0 STARLINK-4291,1 52988U 22076C   23002.45948910 -.00000733  00000-0 -27916-4 0  9990,2 52988  53.2152 271.5887 0002900  29.8865 330.2292 15.08828295 27388,6917.916,95.438,541.7869999999998,537.775,0.0
52988.0,STARLINK-4291,PAYLOAD,2023-01-02 17:23:12,15.08828931,0.0002757,53.2162,270.398,26.2279,333.8852,7.409e-05,8.91e-06,0.0,0 STARLINK-4291,1 52988U 22076C   23002.72444992  .00000891  00000-0  74090-4 0  9999,2 52988  53.2162 270.3980 0002757  26.2279 333.8852 15.08828931 27894,6917.9140000000025,95.438,541.686,537.872,0.0
52988.0,STARLINK-4291,PAYLOAD,2023-01-02 20:33:58,15.08831325,0.0002911,53.215,269.8042,29.7449,330.3708,0.00027077,4.023e-05,0.0,0 STARLINK-4291,1 52988U 22076C   23002.85693190  .00004023  00000-0  27077-3 0  9992,2 52988  53.2150 269.8042 0002911  29.7449 330.3708 15.08831325 27446,6917.906999999997,95.438,541.786,537.758,0.0
52988.0,STARLINK-4291,PAYLOAD,2023-01-03 10:52:27,15.08853502,0.0002907,53.2151,267.1275,29.6136,330.5019999999999,0.00093619,0.00014649,0.0,0 STARLINK-4291,1 52988U 22076C   23003.45309276  .00014649  00000-0  93619-3 0  9998,2 52988  53.2151 267.1275 0002907  29.6136 330.5020 15.08853502 28006,6917.839,95.437,541.715,537.693,0.0
52988.0,STARLINK-4291,PAYLOAD,2023-01-03 12:27:50,15.08857301,0.000291,53.2147,266.8302,29.6227,330.49300000000005,0.000922,0.00014423,0.0,0 STARLINK-4291,1 52988U 22076C   23003.51933157  .00014423  00000-0  92200-3 0  9991,2 52988  53.2147 266.8302 0002910  29.6227 330.4930 15.08857301 27541,6917.828,95.436,541.706,537.679,0.0
52988.0,STARLINK-4291,PAYLOAD,2023-01-03 17:13:59,15.08849065,0.0002758,53.2151,265.9379,27.31,332.8037,0.00044668,6.829999999999999e-05,0.0,0 STARLINK-4291,1 52988U 22076C   23003.71805139  .00006830  00000-0  44668-3 0  9999,2 52988  53.2151 265.9379 0002758  27.3100 332.8037 15.08849065 28043,6917.853,95.437,541.626,537.81,0.0
52988.0,STARLINK-4291,PAYLOAD,2023-01-03 23:35:32,15.08842028,0.0002869,53.215,264.7485,28.2782,331.8366,0.00025149,3.717e-05,0.0,0 STARLINK-4291,1 52988U 22076C   23003.98301517  .00003717  00000-0  25149-3 0  9993,2 52988  53.2150 264.7485 0002869  28.2782 331.8366 15.08842028 28086,6917.874,95.437,541.724,537.754,0.0
52988.0,STARLINK-4291,PAYLOAD,2023-01-04 10:43:14,15.08855752,0.0002823,53.2151,262.6667,29.7737,330.3415,0.00099466,0.00015585,0.0,0 STARLINK-4291,1 52988U 22076C   23004.44669375  .00015585  00000-0  99466-3 0  9993,2 52988  53.2151 262.6667 0002823  29.7737 330.3415 15.08855752 27684,6917.831999999999,95.437,541.65,537.744,0.0
52988.0,STARLINK-4291,PAYLOAD,2023-01-05 02:37:04,15.08883601,0.0002842,53.2151,259.6939,29.4849,330.6303,0.0013898,0.00021927,0.0,0 STARLINK-4291,1 52988U 22076C   23005.10908146  .00021927  00000-0  13898-2 0  9990,2 52988  53.2151 259.6939 0002842  29.4849 330.6303 15.08883601 27788,6917.746999999999,95.435,541.578,537.646,0.0
52988.0,STARLINK-4291,PAYLOAD,2023-01-05 16:55:32,15.08879271,0.0002926,53.2152,257.0166,28.8411,331.2743,0.0009311,0.00014578,0.0,0 STARLINK-4291,1 52988U 22076C   23005.70523198  .00014578  00000-0  93110-3 0  9996,2 52988  53.2152 257.0166 0002926  28.8411 331.2743 15.08879271 27877,6917.76,95.435,541.649,537.601,0.0
